[{"OBJECT_NAME":"YAOGAN-35 04B","OBJECT_ID":"2022-100C","EPOCH":"2026-03-09T23:42:44.729280","MEAN_MOTION":15.33187585,"ECCENTRICITY":0.00030912,"INCLINATION":35.0014,"RA_OF_ASC_NODE":302.0652,"ARG_OF_PERICENTER":78.7259,"MEAN_ANOMALY":281.3806,"EPHEMERIS_TYPE":0,"CLASSIFICATION_TYPE":"U","NORAD_CAT_ID":53524,"ELEMENT_SET_NO":999,"REV_AT_EPOCH":8998,"BSTAR":0.00054878217,"MEAN_MOTION_DOT":0.00018069,"MEAN_MOTION_DDOT":0},{"OBJECT_NAME":"OBJECT A","OBJECT_ID":"2025-234A","EPOCH":"2026-03-09T23:03:34.210368","MEAN_MOTION":15.32505956,"ECCENTRICITY":0.00130678,"INCLINATION":97.4388,"RA_OF_ASC_NODE":139.352,"ARG_OF_PERICENTER":148.634,"MEAN_ANOMALY":211.5684,"EPHEMERIS_TYPE":0,"CLASSIFICATION_TYPE":"U","NORAD_CAT_ID":66053,"ELEMENT_SET_NO":999,"REV_AT_EPOCH":2164,"BSTAR":0.0014840662,"MEAN_MOTION_DOT":0.00046856,"MEAN_MOTION_DDOT":0}]
